{
  "type": "FeatureCollection",
  "features": [
    {
      "type": "Feature",
      "properties": {
        "kind": "observed",
        "area_km2": 12.4,
        "confidence": 0.91
      },
      "geometry": {
        "type": "Polygon",
        "coordinates": [
          [
            [92.861, 12.374],
            [92.865, 12.372],
            [92.872, 12.376],
            [92.878, 12.382],
            [92.874, 12.388],
            [92.866, 12.389],
            [92.859, 12.385],
            [92.854, 12.380],
            [92.852, 12.374],
            [92.861, 12.374]
          ]
        ]
      }
    }
  ]
}
